[{"OBJECT_NAME":"STARLINK-5990","OBJECT_ID":"2023-064A","EPOCH":"2026-03-09T05:13:27.483744","MEAN_MOTION":14.98564845,"ECCENTRICITY":0.0004516,"INCLINATION":70.0007,"RA_OF_ASC_NODE":145.7196,"ARG_OF_PERICENTER":261.0003,"MEAN_ANOMALY":99.0646,"EPHEMERIS_TYPE":0,"CLASSIFICATION_TYPE":"U","NORAD_CAT_ID":56448,"ELEMENT_SET_NO":999,"REV_AT_EPOCH":15517,"BSTAR":0.002277471,"MEAN_MOTION_DOT":0.00027357,"MEAN_MOTION_DDOT":0},{"OBJECT_NAME":"SITRO-AIS 22","OBJECT_ID":"2024-199F","EPOCH":"2026-03-09T22:54:34.366752","MEAN_MOTION":14.95387083,"ECCENTRICITY":0.00134988,"INCLINATION":97.3323,"RA_OF_ASC_NODE":273.3747,"ARG_OF_PERICENTER":41.8157,"MEAN_ANOMALY":318.4094,"EPHEMERIS_TYPE":0,"CLASSIFICATION_TYPE":"U","NORAD_CAT_ID":61740,"ELEMENT_SET_NO":999,"REV_AT_EPOCH":11708,"BSTAR":0.00031759382,"MEAN_MOTION_DOT":3.46e-5,"MEAN_MOTION_DDOT":0}]
